{"type":"FeatureCollection","features":[{"type":"Feature","id":1,"geometry":{"type":"Polygon","coordinates":[[[106.148435592629,46.5622348786368],[106.052705766358,46.5411815642778],[105.923322677799,46.5413761137168],[105.933446883867,46.3404293060677],[105.965639113854,46.2744312294178],[106.007596971323,46.2158184051953],[106.015104294128,46.1714191437785],[106.058046340866,46.0966281886401],[105.910268783578,46.103303909248],[105.810045241994,46.0642566680109],[105.81640815771,45.985826491999],[105.814493180016,45.9411296835881],[105.754583358935,45.9630069729935],[105.618806838865,45.9854068764263],[105.556283951243,45.938703536639],[105.486330032105,45.9341716765817],[105.413351058005,45.9573268891247],[105.39149284412,45.9883975979708],[105.34175682222,46.0549297334205],[105.373941422359,46.0853710166592],[105.409543991262,46.1474628448345],[105.423463821099,46.2298336027386],[105.432455062151,46.2818241116935],[105.444131850604,46.410028457947],[105.405584334749,46.4615840907333],[105.447851181287,46.5215702058004],[105.475294113133,46.5386562346975],[105.544404984403,46.6052570342848],[105.621023177578,46.6699314123049],[105.693975449008,46.7357845308315],[105.846418380604,46.7413501741713],[105.894350052213,46.6979503626192],[105.969244002209,46.6715526579289],[105.99016761904,46.6543064121113],[106.024888991734,46.6372470858844],[106.144594191569,46.6143932343603],[106.148435592629,46.5622348786368]]]},"properties":{"FID":1,"Shape_Leng":3.01355428017,"ADM2_EN":"Adaacag","ADM2_MN":"Адаацаг","ADM2_PCODE":"MN4804","ADM2_REF":" ","ADM2ALT1EN":" ","ADM2ALT2EN":" ","ADM2ALT1MN":" ","ADM2ALT2MN":" ","ADM1_EN":"Dundgovi","ADM1_MN":"Дундговь","ADM1_PCODE":"MN48","ADM0_EN":"Mongolia","ADM0_MN":"монгол","ADM0_PCODE":"MN","date":1480550400000,"validOn":1603065600000,"validTo":null,"F_":0,"Shape__Area":3319539577.949707,"Shape__Length":280348.28041141859}},{"type":"Feature","id":2,"geometry":{"type":"Polygon","coordinates":[[[109.976343155212,45.6857776639081],[110.038045881812,45.4593944548902],[110.044130325154,45.4343280786779],[109.955625534391,45.3875637046013],[109.786001205291,45.3004398354301],[109.620378494172,45.2678050994259],[109.421514510986,45.3018436429698],[109.32361793462,45.3466320041637],[109.289545058558,45.3253269201014],[109.234247208242,45.2907543177576],[109.181432724241,45.2607593536613],[109.160482407437,45.2427158363668],[109.100545882786,45.1578273769319],[108.897089005253,45.1376056665683],[108.672681808219,45.0900173192439],[108.59568595914,45.2263774867317],[108.5877017969,45.2866649628178],[108.579278946266,45.3090915680215],[108.563951492168,45.3643970490846],[108.561761856125,45.3786525733576],[108.557584763326,45.3979587549926],[108.555356978941,45.4075794216531],[108.551713942245,45.4236774436591],[108.54665184011,45.4442729950028],[108.535032271922,45.5302524570853],[108.510808946276,45.5855197907058],[108.841958999908,45.5172328953819],[108.889875411821,45.5987834931638],[108.927095413223,45.6798038479693],[108.948415756082,45.7454242714131],[108.963518143148,45.7739391330846],[109.007913588741,45.8103618621103],[109.028188705345,45.8216190340912],[109.169473647591,45.8355236051303],[109.168298721109,45.8562259671547],[109.197519300575,45.8749408724234],[109.318902968997,45.9964389795753],[109.523134232059,46.0761051181567],[109.693918227944,46.1790256501137],[109.749525070026,46.0531063076101],[109.793462752604,45.9411373143357],[109.807222366419,45.8543758386741],[109.915700912767,45.7227306368095],[109.976343155212,45.6857776639081]]]},"properties":{"FID":2,"Shape_Leng":4.36751274035,"ADM2_EN":"Airag","ADM2_MN":"Айраг","ADM2_PCODE":"MN4404","ADM2_REF":" ","ADM2ALT1EN":" ","ADM2ALT2EN":" ","ADM2ALT1MN":" ","ADM2ALT2MN":" ","ADM1_EN":"Dornogovi","ADM1_MN":"Дорноговь","ADM1_PCODE":"MN44","ADM0_EN":"Mongolia","ADM0_MN":"монгол","ADM0_PCODE":"MN","date":1480550400000,"validOn":1603065600000,"validTo":null,"F_":0,"Shape__Area":7485267819.4064941,"Shape__Length":405272.17453620234}},{"type":"Feature","id":3,"geometry":{"type":"Polygon","coordinates":[[[100.246168135651,50.8018016822019],[100.247102736302,50.8001728058304],[100.246828079752,50.7991924287876],[100.246477127418,50.7977085114387],[100.24652290291,50.7972164150056],[100.246576309149,50.7967243185725],[100.247232435628,50.7957363125808],[100.248247146988,50.7943134313198],[100.248781203989,50.7936038968024],[100.249017714896,50.7930507660801],[100.24855995188,50.7923488623102],[100.24781227082,50.7920818329103],[100.246019362604,50.792062759189],[100.244722365745,50.7921161654288],[100.24372291588,50.7919712073054],[100.242288588947,50.7914752959482],[100.241212845097,50.7907009122174],[100.241136551111,50.7899570469802],[100.241067886074,50.7874851227403],[100.241022109683,50.7858371726475],[100.240747452233,50.7847805016189],[100.240289688319,50.783651352428],[100.239717483875,50.7831439971978],[100.238992692359,50.7816219333056],[100.238222120854,50.7804927832154],[100.23770332265,50.7795200351215],[100.237436295049,50.778970718424],[100.2371616367,50.7778758999528],[100.236635206849,50.7767429349386],[100.236047745407,50.7755336759384],[100.235399246078,50.7743244169383],[100.234994888403,50.7731533053808],[100.234697342309,50.771078109867],[100.234544755236,50.7700176239143],[100.234872817127,50.7684078221633],[100.235818864349,50.7668285371074],[100.237031935575,50.7658329012675],[100.237085342714,50.7654399865662],[100.237054824221,50.764383316437],[100.236291884363,50.7636852257926],[100.235414503976,50.7630672449574],[100.234834670584,50.7624034877308],[100.23425483809,50.761430739637],[100.233919143654,50.7602939605978],[100.233888626059,50.7591991421268],[100.234224317798,50.757898331243],[100.234445572605,50.7570323938299],[100.234308243431,50.7564868929558],[100.233675002899,50.7559032437397],[100.232736588223,50.7554035192571],[100.232034682655,50.7546672820695],[100.23146247911,50.7539272308571],[100.231317520088,50.7531032558107],[100.231233598052,50.7524776460266],[100.231531142348,50.7518863678616],[100.232187272425,50.7510547638663],[100.233583449217,50.7499408716739],[100.235162735172,50.7489833832766],[100.237062454069,50.7481021879656],[100.23883247364,50.7473354340831],[100.240976334191,50.7464885712906],[100.242624283384,50.7457256323321],[100.24431800807,50.7444515232193],[100.245836257937,50.7434177399368],[100.246866227195,50.742425919021],[100.247591018711,50.7418689733745],[100.247819900668,50.7413158417527],[100.248170853003,50.7403316497858],[100.24855995188,50.738641739125],[100.248628616018,50.7367572781259],[100.248895643619,50.7350292209219],[100.248971939404,50.7333774568042],[100.248750686395,50.7318897254306],[100.248338698872,50.7306003566212],[100.247995376386,50.7291126252475],[100.248102187966,50.7284450530968],[100.249116899325,50.7271404272889],[100.249513626253,50.7259197244158],[100.249849318891,50.7245426177477],[100.249673844073,50.722463608209],[100.249628066782,50.7207393650297],[100.24952888505,50.7195644376487],[100.249742507311,50.7181491853367],[100.25012397724,50.7163410192227],[100.251260757178,50.7149562836057],[100.252099991022,50.7137699132509],[100.252550125988,50.7123126976729],[100.252885817726,50.7107791899077],[100.252794265843,50.7097606663218],[100.252840042234,50.7093257901532],[100.253198624417,50.708696365445],[100.253717421722,50.7074337011045],[100.253999709919,50.7063732151518],[100.25377845781,50.7049617768645],[100.253763199012,50.7042942047138],[100.254281998116,50.7029972078549],[100.254808427067,50.7018146506257],[100.255029678277,50.7009067544432],[100.255189896996,50.6999645230444],[100.254976272037,50.6988697045733],[100.25496101414,50.6982402798651],[100.255121230161,50.6974925988044],[100.255533217684,50.6965465551795],[100.256235123252,50.6951274870439],[100.256517411449,50.6941432950771],[100.256669997622,50.692926407128],[100.256296158441,50.6905384058228],[100.255685805655,50.6885433201182],[100.255151748654,50.6870174413019],[100.255060195871,50.6859989168166],[100.254968643988,50.6847858428924],[100.255487441292,50.6834049221994],[100.255701066251,50.6821460718838],[100.255365371814,50.681249618675],[100.254808427067,50.6810970307035],[100.254014968716,50.6813030240154],[100.253412246678,50.6819744110903],[100.252748490351,50.6825733182041],[100.252634048023,50.6829280845635],[100.252878188777,50.6828861239955],[100.253862380744,50.6826000208743],[100.254541396768,50.6825923919254],[100.254915235949,50.6827068333537],[100.254739761131,50.6831798551663],[100.254014968716,50.6838512422411],[100.253473281867,50.6844081878876],[100.252801893892,50.6846523277428],[100.251878738013,50.6846981050336],[100.251314163418,50.6842365261948],[100.2508716583,50.6840419767558],[100.250261307314,50.6842479709671],[100.249658584376,50.6846828462364],[100.24941444542,50.6848850246242],[100.248857497975,50.6850070950015],[100.248552322931,50.6850872039114],[100.247369765702,50.6847476963492],[100.246423721178,50.683973311719],[100.245416639666,50.6831226349017],[100.244646071759,50.6820316313547],[100.244379044158,50.6812877661176],[100.244646071759,50.6797962189204],[100.244684219201,50.6788120269536],[100.244836808072,50.677556991562],[100.245248794696,50.6768474579439],[100.246072768843,50.6753063203305],[100.248003006234,50.6736011508725],[100.248605728272,50.6730823517692],[100.249856948739,50.6714611052458],[100.251588820867,50.6692447656335],[100.252733230654,50.6681728358078],[100.253442764272,50.6669902803772],[100.25345039412,50.6649112699392],[100.253679276977,50.6643199917743],[100.254526137971,50.663408278869],[100.254991530835,50.6623439788916],[100.255456923698,50.6612796780148],[100.256349564681,50.6601314542033],[100.256830216341,50.6595363620136],[100.256746291608,50.6589488978734],[100.256151199418,50.6573467250714],[100.255624771366,50.6561756126145],[100.255022050228,50.654497146726],[100.254373549999,50.6530513759203],[100.254289627065,50.6522274017732],[100.254213333079,50.6516818999997],[100.254144668941,50.6514835356367],[100.253328322844,50.6509456628121],[100.252206801703,50.6506023412251],[100.251276015975,50.6504955287457],[100.251024247171,50.6503429407741],[100.250879289048,50.6495571140696],[100.250436783031,50.6488971708678],[100.249803543399,50.6484317780042],[100.249177933615,50.6482028960469],[100.248682022258,50.648092270442],[100.248071671271,50.6482944488298],[100.24635505704,50.6485462194325],[100.24340248114,50.6490116122961],[100.239892959592,50.6493625637314],[100.238130568971,50.6495151517029],[100.236360550299,50.6496715545986],[100.234277724937,50.6496562958015],[100.23280525326,50.6497097020412],[100.230836868427,50.6497287748631],[100.228868483594,50.6495571140696],[100.22726631259,50.6496524808774],[100.225297926858,50.649320602264],[100.223077775019,50.6491870880138],[100.220926286419,50.649091721206],[100.218400955939,50.6489620209805],[100.215753555083,50.6486759187587],[100.213472365357,50.6484661096233],[100.211191177431,50.647905349952],[100.209642409969,50.6475696564146],[100.207841871905,50.6467685700135],[100.207155228731,50.6462268831642],[100.206583023388,50.6456089023291],[100.205400467058,50.6450748444286],[100.204462050583,50.6444187161509],[100.20382881185,50.6437244422293],[100.202463149954,50.6431102754189],[100.200899123696,50.641916275216],[100.20065498384,50.6418819426975],[100.20012855399,50.6405200957259],[100.199838637743,50.638921737848],[100.19893836961,50.6373653414374],[100.198289871181,50.6358890530374],[100.197809218621,50.6340961457206],[100.197404860046,50.6326541898391],[100.197542191019,50.6307811736123],[100.1979160311,50.6285877226454],[100.198282242232,50.6260433202431],[100.198854446675,50.6244754790601],[100.20000648631,50.6238803859711],[100.201211928588,50.6229686739652],[100.202478408752,50.6218624107217],[100.203134537029,50.6212291719888],[100.203126907181,50.62095451364],[100.203355789138,50.620248794946],[100.20350837711,50.6190357210218],[100.20324134771,50.6180629729279],[100.202653885369,50.6169376368625],[100.201936721902,50.6151065830024],[100.200799942863,50.6138706213322],[100.200151442635,50.6125469209038],[100.199922561577,50.6109485630258],[100.200555801209,50.609186172404],[100.20162391701,50.607885360621],[100.202707290709,50.60689735373],[100.203180313421,50.606306075565],[100.203294754849,50.6057567597667],[100.203340530341,50.6052112579932],[100.204111099148,50.6040706631306],[100.205911637212,50.6026821143881],[100.208086015357,50.6011371609513],[100.210687637125,50.5996265409321],[100.211046219308,50.5992717736735],[100.213296891438,50.5985050197909],[100.214815141306,50.5980205541053],[100.215730668236,50.5977764133509],[100.215791701626,50.5976581569984],[100.215974808091,50.5975399024446],[100.215837478917,50.5972270966532],[100.215288163118,50.5971164701491],[100.213998794309,50.597208022932],[100.212472917291,50.5974216460921],[100.20862007056,50.598123549862],[100.206666946323,50.5984973908419],[100.205751419393,50.5986232761433],[100.205377578413,50.5986270901681],[100.203477860415,50.598684311332],[100.201700210996,50.5985851287008],[100.199785233302,50.5983333589974],[100.197809217721,50.5978450783877],[100.197069167408,50.5976200095558],[100.196260452058,50.5972766879688],[100.194719315344,50.5968990329641],[100.192262649901,50.5966892238287],[100.19065284815,50.5962390897623],[100.188730240608,50.5955562588143],[100.188608170231,50.5955562588143],[100.186731338181,50.5942096706398],[100.185312270045,50.5937137601819],[100.183946609049,50.5932979577346],[100.182329178349,50.5924549098663],[100.180780410887,50.5918483729042],[100.179544449217,50.5913105009789],[100.178308485748,50.5909328459741],[100.176942824752,50.5905590058935],[100.175157547283,50.5900669103597],[100.174226760657,50.5898036958839],[100.173418045307,50.5893039696026],[100.172288895216,50.5884151462421],[100.171159744227,50.5873737340107],[100.170160294362,50.5865230562941],[100.16877937277,50.5854053500769],[100.168031691709,50.5848636632275],[100.167398452976,50.5840892785974],[100.166383743415,50.582654952564],[100.165742873935,50.5816478728511],[100.165292739868,50.5809879296493],[100.16496467528,50.5799350744442],[100.164934157685,50.5787639619873],[100.165033341216,50.5777873989693],[100.16507148686,50.5768871308365],[100.164941786634,50.5765743259444],[100.164682387982,50.5759906767284],[100.163858413835,50.5749073030296],[100.163087845028,50.5734691620722],[100.162080765315,50.5725421912692],[100.160638807635,50.5713825226853],[100.159517288292,50.5705738073354],[100.158281325723,50.5700778959782],[100.157091141343,50.5691547391999],[100.156969070067,50.5691165917573],[100.155961990354,50.5680332180586],[100.15581703223,50.5671329499257],[100.155664444259,50.5658855443824],[100.156183244261,50.564748764444],[100.156579971189,50.5634174350666],[100.156557084342,50.5624408720487],[100.155984878999,50.5615062713974],[100.154664992595,50.5601139068314],[100.153459549419,50.5586795807981],[100.152635574372,50.5574016567611],[100.152177811357,50.5564670561098],[100.152231215798,50.555879592869],[100.152742385952,50.5544681545817],[100.154054643407,50.5529308318924],[100.154886245604,50.551595687591],[100.155595779222,50.5507678994191],[100.155885694569,50.5499057769301],[100.1559848781,50.5490856168078],[100.155717849599,50.5479946141602],[100.155191423346,50.5465908048218],[100.154993058083,50.5459690090626],[100.15496253959,50.5449543004007],[100.154993057184,50.5434322356093],[100.154642104849,50.5417537688214],[100.154375077248,50.5409374236232],[100.15410804605,50.5398464200763],[100.154359817552,50.5376949305767],[100.154382706197,50.5359745032208],[100.154344558754,50.534608841325],[100.154550552066,50.5330448150662],[100.154870986807,50.5311641689913],[100.155038833575,50.5305004117646],[100.154893874553,50.5294475556602],[100.155046463424,50.5281925202687],[100.155214310192,50.5275669095853],[100.154909134249,50.5276088710526],[100.155664445158,50.5259990693016],[100.156007767644,50.5247478488342],[100.156030655391,50.5231838225754],[100.155565260728,50.5218982695895],[100.155565261628,50.5211162569098],[100.155496596591,50.5200176244139],[100.155565261628,50.5190906518122],[100.156145095919,50.5185909273295],[100.156076430883,50.5177249908157],[100.156953812169,50.5164127351596],[100.158037185867,50.5143489844182],[100.158243179179,50.5137081149376],[100.15834999076,50.5124645234191],[100.158365249557,50.5113048548353],[100.158441544442,50.5106983178731],[100.158433913694,50.5101757047451],[100.15877723708,50.5095958713524],[100.159036635732,50.5089550018719],[100.159433365358,50.508459091414],[100.160463332817,50.5078105929845],[100.161439896734,50.5068759923332],[100.161821364864,50.5060024259712],[100.162523270433,50.5049266821208],[100.16286659202,50.504083633353],[100.163431168414,50.5030078886032],[100.163995743009,50.5019016271584],[100.164697646779,50.5009975432021],[100.165575027166,50.4998874659339],[100.166551589284,50.4988651283231],[100.167261123802,50.4983386993715],[100.168375014196,50.4976024630832],[100.16904640127,50.4969615936027],[100.169618606613,50.4962902074272],[100.170007706391,50.4955921167828],[100.170274733992,50.4953289032064],[100.171068191444,50.4945659642479],[100.171823502353,50.4938640586794],[100.172349930405,50.4931354522394],[100.172105788751,50.4925022126071],[100.171609879193,50.4924182887731],[100.170885084979,50.4926891330971],[100.170396805268,50.4929523466735],[100.170305251586,50.4930706021266],[100.170190811956,50.4937381742774],[100.170015336239,50.4942302698112],[100.169534683679,50.494901656886],[100.168962479235,50.4954547876084],[100.167932509977,50.4959888464082],[100.166986466352,50.496400833032],[100.165903090855,50.4967327116454],[100.165002822722,50.496885299617],[100.163911819175,50.4967784880369],[100.162851334122,50.4961528782528],[100.162027359075,50.4957561486274],[100.161966323887,50.4951801301589],[100.16194343704,50.4943675989856],[100.162240982236,50.4932651515655],[100.162797928781,50.4920444486924],[100.162790298034,50.4916095734231],[100.162530900281,50.490514754952],[100.162141801403,50.4892749792569],[100.16179084727,50.4881496431915],[100.161645889147,50.4876003273932],[100.161577225908,50.4866466521213],[100.161729812981,50.4856319425601],[100.161622999602,50.4849681853335],[100.161828994712,50.4838924405837],[100.162614823216,50.4826717377106],[100.163888931429,50.4810390473143],[100.167047500642,50.4784297938999],[100.168107985695,50.4774913792238],[100.168634414647,50.4767627718845],[100.16915321375,50.4755725857063],[100.169229506836,50.4749660487442],[100.169351577214,50.474615097309],[100.169794082331,50.4741497044454],[100.170190811057,50.4736232763931],[100.17103767295,50.4730052946587],[100.171976087626,50.4724750516824],[100.172227860028,50.4716053011438],[100.171976087626,50.4705371862422],[100.171770096113,50.4696712488291],[100.171655654685,50.4687480929502],[100.171777725062,50.4679927829407],[100.172159194991,50.4669170381908],[100.172502518377,50.4662189484458],[100.173395156661,50.4657497406581],[100.17377662659,50.4647006985784],[100.174570084942,50.4637699128513],[100.175271987812,50.4626026153185],[100.175592421653,50.4611835480823],[100.175798415864,50.4601688394205],[100.175333023001,50.4595928191533],[100.174997328564,50.4589023592565],[100.175027847058,50.4583797452291],[100.174768448405,50.4571094510404],[100.174119949076,50.4563655849039],[100.173700332604,50.4561100011757],[100.17334175222,50.4560527800118],[100.173105240415,50.4559116359133],[100.173273087183,50.4552135470676],[100.173303602979,50.4547824858231],[100.17415046757,50.4540767671292],[100.175432205632,50.4527912141432],[100.17635536241,50.4514789575879],[100.176744462187,50.450754166072],[100.177194595354,50.4489231113126],[100.177530289791,50.4476757048699],[100.178171158372,50.4463405605684],[100.178873062142,50.4452610017938],[100.179567336963,50.444185257044],[100.179819106667,50.4432849880118],[100.179979323587,50.442384719879],[100.180284500429,50.4418315891565],[100.180719374799,50.441160